      2.10          N: GNSS NAV DATA                        RINEX VERSION / TYPE
fic2rin                                 08/11/2021 00:17:18 PGM / RUN BY / DATE
                                                            END OF HEADER
 1 21  8 10 20  0  0.0 6.015421822667e-04-1.136868377216e-11 0.000000000000e+00
    1.020000000000e+02 8.037500000000e+01 4.157673183777e-09-1.548245762056e+00
    4.278495907784e-06 1.106134522706e-02 3.932043910027e-06 5.153679121017e+03
    2.448000000000e+05 1.918524503708e-07 1.468965868919e+00-1.117587089539e-08
    9.848364553514e-01 3.123125000000e+02 8.827902214476e-01-8.039977754488e-09
    4.860916762409e-10 1.000000000000e+00 2.170000000000e+03 0.000000000000e+00
    3.400000000000e+00 0.000000000000e+00 5.122274160385e-09 1.020000000000e+02
    2.376000000000e+05 4.000000000000e+00
 9 21  8 10 20  0  0.0-3.584255464375e-04-1.023181539495e-12 0.000000000000e+00
    1.000000000000e+01-4.956250000000e+01 4.414469594664e-09 1.124778490762e+00
   -2.741813659668e-06 2.011693781242e-03 1.204572618008e-05 5.153741638184e+03
    2.448000000000e+05-4.097819328308e-08-2.747918538454e+00-2.421438694000e-08
    9.539286126700e-01 1.435937500000e+02 1.812188239017e+00-7.923544333140e-09
    2.750114553310e-11 1.000000000000e+00 2.170000000000e+03 0.000000000000e+00
    2.400000000000e+00 0.000000000000e+00 1.396983861923e-09 1.000000000000e+01
    2.376000000000e+05 4.000000000000e+00
 5 21  8 10 20  0  0.0-5.070352926850e-05-1.250555214938e-12 0.000000000000e+00
    6.800000000000e+01-8.943750000000e+01 5.071639825584e-09 1.058596957532e+00
   -4.483386874199e-06 6.107025546953e-03 4.032626748085e-06 5.153568140030e+03
    2.448000000000e+05-7.823109626770e-08 2.468435509070e+00 1.173466444016e-07
    9.573129024850e-01 3.022812500000e+02 9.622219537781e-01-8.647860218090e-09
   -3.314423773340e-10 1.000000000000e+00 2.170000000000e+03 0.000000000000e+00
    2.400000000000e+00 0.000000000000e+00-1.117587089539e-08 6.800000000000e+01
    2.376000000000e+05 4.000000000000e+00
 4 21  8 10 20  0  0.0-2.037426456809e-04-4.547473508865e-13 0.000000000000e+00
    5.300000000000e+01-4.287500000000e+01 4.261248926693e-09 1.625154289857e-01
   -2.419576048851e-06 1.323865610175e-03 1.175329089165e-05 5.153720169067e+03
    2.448000000000e+05-3.166496753693e-08-2.696499846991e+00 3.725290298462e-09
    9.610025545052e-01 1.512187500000e+02-2.995791034401e+00-7.864256149264e-09
    1.928651764659e-11 1.000000000000e+00 2.170000000000e+03 0.000000000000e+00
    2.400000000000e+00 0.000000000000e+00-4.190951585770e-09 5.300000000000e+01
    2.376000000000e+05 4.000000000000e+00
 2 21  8 10 20  0  0.0-6.254799664021e-04-2.387423592154e-12 0.000000000000e+00
    3.500000000000e+01 1.070625000000e+02 4.719125141933e-09-1.264880803477e+00
    6.029382348061e-06 2.022513700649e-02 4.921108484268e-06 5.153734209061e+03
    2.448000000000e+05-2.179294824600e-07 1.383566159358e+00 4.116445779800e-07
    9.634390533437e-01 2.946562500000e+02-1.500301752653e+00-8.522855011121e-09
    5.010923010771e-10 1.000000000000e+00 2.170000000000e+03 0.000000000000e+00
    2.400000000000e+00 0.000000000000e+00-1.769512891769e-08 3.500000000000e+01
    2.376000000000e+05 4.000000000000e+00
 3 21  8 10 20  0  0.0-2.496372908354e-04-1.341504685115e-11 0.000000000000e+00
    6.700000000000e+01-9.371875000000e+01 4.632692970257e-09-2.607743632818e+00
   -4.855915904045e-06 3.817333839834e-03 4.038214683533e-06 5.153796905518e+03
    2.448000000000e+05 1.452863216400e-07 2.506278374886e+00-1.136213541031e-07
    9.703726077084e-01 3.056875000000e+02 9.417500742078e-01-8.314632052085e-09
   -2.307238962907e-10 1.000000000000e+00 2.170000000000e+03 0.000000000000e+00
    2.400000000000e+00 0.000000000000e+00 1.862645149231e-09 6.700000000000e+01
    2.376000000000e+05 4.000000000000e+00
 8 21  8 10 20  0  0.0-3.215065225959e-05-1.477928890381e-12 0.000000000000e+00
    8.800000000000e+01 3.050000000000e+01 4.031953661340e-09 7.605784269272e-01
    1.693144440651e-06 6.402320461348e-03 1.196190714836e-05 5.153640581131e+03
    2.448000000000e+05 9.313225746155e-08 3.928632766981e-01 1.396983861923e-07
    9.669834507650e-01 1.525937500000e+02 6.011698731383e-02-7.782467028133e-09
   -1.085759511956e-10 1.000000000000e+00 2.170000000000e+03 0.000000000000e+00
    2.400000000000e+00 0.000000000000e+00 5.122274160385e-09 8.800000000000e+01
    2.376000000000e+05 4.000000000000e+00
 6 21  8 10 20  0  0.0 5.387701094151e-05 6.252776074689e-12 0.000000000000e+00
    6.500000000000e+01 8.743750000000e+01 4.290178703163e-09-1.285998027414e+00
    4.477798938751e-06 2.146785031073e-03 4.284083843231e-06 5.153552083969e+03
    2.448000000000e+05-1.117587089539e-08 1.460709988754e+00 2.607703208923e-08
    9.842723951017e-01 3.140937500000e+02-9.768638049042e-01-8.155696860368e-09
    4.539474801632e-10 1.000000000000e+00 2.170000000000e+03 0.000000000000e+00
    2.400000000000e+00 0.000000000000e+00 3.725290298462e-09 6.500000000000e+01
    2.376000000000e+05 4.000000000000e+00
 7 21  8 10 20  0  0.0 2.221702598035e-04 8.071765478235e-12 0.000000000000e+00
    9.200000000000e+01 5.140625000000e+01 4.917347684412e-09-2.148994989193e+00
    2.549961209297e-06 1.522859092802e-02 6.271526217461e-06 5.153740324020e+03
    2.448000000000e+05 1.061707735062e-07-1.675588841218e+00-1.173466444016e-07
    9.510350660393e-01 2.527500000000e+02-2.311469757833e+00-8.080693736186e-09
    4.832344143673e-10 1.000000000000e+00 2.170000000000e+03 0.000000000000e+00
    2.400000000000e+00 0.000000000000e+00-1.117587089539e-08 9.200000000000e+01
    2.376000000000e+05 4.000000000000e+00
21 21  8 10 20  0  0.0 1.364718191326e-04 2.160049916711e-12 0.000000000000e+00
    1.200000000000e+01 8.243750000000e+01 4.940205779400e-09 8.232779254702e-01
    3.943219780922e-06 2.406100917142e-02 5.155801773071e-06 5.153652252197e+03
    2.448000000000e+05-8.940696716309e-08 1.383151929715e+00-5.047768354416e-07
    9.576211890635e-01 2.806875000000e+02-1.100901657659e+00-8.726792077347e-09
    4.325180161115e-10 1.000000000000e+00 2.170000000000e+03 0.000000000000e+00
    2.400000000000e+00 0.000000000000e+00-1.024454832077e-08 1.200000000000e+01
    2.376000000000e+05 4.000000000000e+00
20 21  8 10 20  0  0.0 5.197222344577e-04-2.273736754432e-13 0.000000000000e+00
    6.000000000000e+00-7.640625000000e+01 5.539516457381e-09-3.693936322132e-01
   -3.891065716743e-06 5.501976353116e-03 2.656131982803e-06 5.153631893158e+03
    2.448000000000e+05 0.000000000000e+00 2.357914017269e+00-3.352761268616e-08
    9.392518665589e-01 3.161250000000e+02 2.969779338613e+00-8.856440334860e-09
   -1.610781381224e-10 1.000000000000e+00 2.170000000000e+03 0.000000000000e+00
    2.400000000000e+00 0.000000000000e+00-8.381903171539e-09 6.000000000000e+00
    2.376000000000e+05 4.000000000000e+00
16 21  8 10 20  0  0.0-3.715651109815e-04-6.252776074689e-12 0.000000000000e+00
    6.400000000000e+01-4.100000000000e+01 4.445185159804e-09 1.580382722175e+00
   -2.127140760422e-06 1.217717688996e-02 7.107853889465e-06 5.153733619690e+03
    2.448000000000e+05-1.601874828339e-07-5.453254302388e-01 2.607703208923e-08
    9.727252374534e-01 2.545312500000e+02 6.796751453008e-01-8.119623929214e-09
   -6.157399337540e-10 1.000000000000e+00 2.170000000000e+03 0.000000000000e+00
    2.400000000000e+00 0.000000000000e+00-1.024454832077e-08 6.400000000000e+01
    2.376000000000e+05 4.000000000000e+00
12 21  8 10 20  0  0.0-8.105952292681e-05-5.343281372916e-12 0.000000000000e+00
    6.600000000000e+01-3.840625000000e+01 4.331966158064e-09-2.892336399523e+00
   -1.870095729828e-06 8.252856205218e-03 7.141381502151e-06 5.153691480637e+03
    2.448000000000e+05 5.029141902924e-08-5.640328696844e-01-9.313225746155e-09
    9.726722286168e-01 2.465937500000e+02 1.230183548003e+00-7.822468694363e-09
   -5.071639825584e-10 1.000000000000e+00 2.170000000000e+03 0.000000000000e+00
    2.400000000000e+00 0.000000000000e+00-1.257285475731e-08 6.600000000000e+01
    2.376000000000e+05 4.000000000000e+00
10 21  8 10 20  0  0.0-1.798472367227e-04-7.730704965070e-12 0.000000000000e+00
    6.700000000000e+01-8.734375000000e+01 4.628764235181e-09 2.762649803133e+00
   -4.490837454796e-06 6.794913089834e-03 3.814697265625e-06 5.153675924301e+03
    2.448000000000e+05-6.146728992462e-08 2.503428111612e+00-6.705522537231e-08
    9.702323343454e-01 3.137500000000e+02-2.578461332041e+00-8.243200505246e-09
   -2.650110387735e-10 1.000000000000e+00 2.170000000000e+03 0.000000000000e+00
    2.400000000000e+00 0.000000000000e+00 2.328306436539e-09 6.700000000000e+01
    2.376000000000e+05 4.000000000000e+00
27 21  8 10 20  0  0.0-1.763473264873e-04-5.684341886081e-12 0.000000000000e+00
    3.600000000000e+01 3.543750000000e+01 3.867303945875e-09 6.422000922001e-01
    1.862645149231e-06 9.446871466935e-03 1.203268766403e-05 5.153692739487e+03
    2.448000000000e+05-1.154839992523e-07 4.107239776966e-01 1.806765794754e-07
    9.755959055083e-01 1.581562500000e+02 6.363759417609e-01-7.739965257763e-09
   -1.525063525017e-10 1.000000000000e+00 2.170000000000e+03 0.000000000000e+00
    2.400000000000e+00 0.000000000000e+00 1.862645149231e-09 3.600000000000e+01
    2.376000000000e+05 4.000000000000e+00
15 21  8 10 20  0  0.0-1.293057575822e-04 2.728484105319e-12 0.000000000000e+00
    1.030000000000e+02-6.518750000000e+01 5.169143887020e-09-2.033367287166e-01
   -3.281980752945e-06 1.346934214234e-02 1.185201108456e-05 5.153666900635e+03
    2.448000000000e+05-5.029141902924e-08-2.848932240389e+00 1.359730958939e-07
    9.296847026995e-01 1.326250000000e+02 1.008897717074e+00-8.543927317439e-09
   -9.036090675161e-11 1.000000000000e+00 2.170000000000e+03 0.000000000000e+00
    2.400000000000e+00 0.000000000000e+00-1.071020960808e-08 1.030000000000e+02
    2.376000000000e+05 4.000000000000e+00
